NUSAT-49 (KLARA DAN VO*)
1 60500U 24149AJ  26068.79810190  .00012912  00000+0  43568-3 0  9991
2 60500  97.3807 150.7380 0001132 286.7761  73.3356 15.30828857 86935
STARLINK-34999          
1 65222U 25176AA  26068.47396430  .00015522  00000+0  53501-3 0  9997
2 65222  53.1599 153.9922 0001307 105.6394 254.4751 15.30205110 33081
