[{"OBJECT_NAME":"NUSAT-49 (KLARA DAN VON NEUMANN)","OBJECT_ID":"2024-149AJ","EPOCH":"2026-03-09T19:09:16.004160","MEAN_MOTION":15.30828857,"ECCENTRICITY":0.00011321,"INCLINATION":97.3807,"RA_OF_ASC_NODE":150.738,"ARG_OF_PERICENTER":286.7761,"MEAN_ANOMALY":73.3356,"EPHEMERIS_TYPE":0,"CLASSIFICATION_TYPE":"U","NORAD_CAT_ID":60500,"ELEMENT_SET_NO":999,"REV_AT_EPOCH":8693,"BSTAR":0.00043568345,"MEAN_MOTION_DOT":0.00012912,"MEAN_MOTION_DDOT":0},{"OBJECT_NAME":"STARLINK-34999","OBJECT_ID":"2025-176AA","EPOCH":"2026-03-09T11:22:30.515520","MEAN_MOTION":15.3020511,"ECCENTRICITY":0.00013076,"INCLINATION":53.1599,"RA_OF_ASC_NODE":153.9922,"ARG_OF_PERICENTER":105.6394,"MEAN_ANOMALY":254.4751,"EPHEMERIS_TYPE":0,"CLASSIFICATION_TYPE":"U","NORAD_CAT_ID":65222,"ELEMENT_SET_NO":999,"REV_AT_EPOCH":3308,"BSTAR":0.00053500847,"MEAN_MOTION_DOT":0.00015522,"MEAN_MOTION_DDOT":0}]
